STARLINK-3856           
1 52459U 22049J   26068.27860816  .00003094  00000+0  21236-3 0  9994
2 52459  53.2179  60.9676 0001524  87.1423 272.9744 15.08850733212184
KUIPER-00148            
1 65769U 25217H   26068.27522507  .00015783  00000+0  98730-3 0  9995
2 65769  51.8794  26.5769 0008108 351.8096   8.2745 15.09536529 25078
